STARLINK-4608           
1 53621U 22104AK  26188.90224806  .00002001  00000+0  14384-3 0  9997
2 53621  53.1611  54.2082 0001282  80.5174 279.5963 15.08816340213783
STARLINK-4568           
1 53622U 22104AL  26189.00156992  .00002116  00000+0  15110-3 0  9995
2 53622  53.1613  53.4079 0001374 106.3742 253.7400 15.08821740213918
STARLINK-4573           
1 53623U 22104AM  26189.16668980  .00001247  00000+0  51932-4 0  9995
2 53623  53.1612  49.8462 0001256  70.9224 114.3899 15.31707896  5849
STARLINK-4596           
1 53624U 22104AN  26189.00728741 -.00002535  00000+0 -69957-4 0  9990
2 53624  53.1606  50.6358 0001423  77.8998 282.2163 15.31697143213952
STARLINK-4554           
1 53626U 22104AQ  26189.16668980  .00045179  00000+0  26408-2 0  9998
2 53626  53.1592  52.6670 0002223  78.2735  97.1411 15.11466992  5389
STARLINK-4595           
1 53627U 22104AR  26189.01261169  .00001512  00000+0  11316-3 0  9997
2 53627  53.1604  53.4737 0001184 102.2950 257.8174 15.08813287213920
STARLINK-4600           
1 53628U 22104AS  26188.99788478  .00001358  00000+0  10347-3 0  9992
2 53628  53.1612  53.3822 0001343  99.7679 260.3464 15.08820222213927
STARLINK-4602           
1 53629U 22104AT  26188.94269911  .00002776  00000+0  19251-3 0  9992
2 53629  53.1606  53.7456 0001464  84.7922 275.3237 15.08819919213911
STARLINK-4598           
1 53630U 22104AU  26189.16668980  .00019711  00000+0  10998-2 0  9993
2 53630  53.1599  43.0949 0001312 110.9535 216.3394 15.13572576  5837
STARLINK-4599           
1 53631U 22104AV  26189.06042441  .00002777  00000+0  19251-3 0  9997
2 53631  53.1610  53.0626 0001343  98.8341 261.2802 15.08835979213936
STARLINK-4606           
1 53632U 22104AW  26189.03565909  .00002502  00000+0  17533-3 0  9991
2 53632  53.1610  43.6340 0001281  96.2512 263.8626 15.08815930214396
STARLINK-4593           
1 53633U 22104AX  26189.03932691  .00001148  00000+0  90275-4 0  9998
2 53633  53.1610  43.6526 0001881 100.0143 260.1061 15.08823991214066
STARLINK-4592           
1 53634U 22104AY  26188.82955014  .00001014  00000+0  81807-4 0  9992
2 53634  53.1608  44.4833 0001302  99.5239 260.5900 15.08827497214364
STARLINK-4586           
1 53636U 22104BA  26189.02089557 -.00000798  00000+0 -32071-4 0  9996
2 53636  53.1603  43.5456 0001525  84.1756 275.9410 15.08833123214395
STARLINK-4396           
1 53637U 22104BB  26188.98879568  .00002378  00000+0  16751-3 0  9990
2 53637  53.1611  44.0435 0001397  82.8271 277.2879 15.08821188214383
STARLINK-4594           
1 53638U 22104BC  26189.00248714  .00002232  00000+0  15838-3 0  9992
2 53638  53.1612  43.4309 0001428  81.5948 278.5205 15.08821361214391
STARLINK-4422           
1 53639U 22104BD  26189.16668980  .00125948  00000+0  14662-2 0  9994
2 53639  53.2171  28.6058 0000528  65.5748 228.9620 15.60816079  5889
STARLINK-4597           
1 53640U 22104BE  26188.81481845  .00001162  00000+0  91116-4 0  9992
2 53640  53.1608  44.3933 0001290  91.3289 268.7851 15.08815527214368
STARLINK-4588           
1 53641U 22104BF  26189.16668980  .00025557  00000+0  14670-2 0  9991
2 53641  53.1599  42.9036 0000609  45.6702  17.7047 15.12399906  5798
STARLINK-4622           
1 53648U 22105A   26189.08511468  .00001086  00000+0  79158-4 0  9993
2 53648  97.2856  67.0450 0001884  87.8480 272.2964 15.05644406211352
STARLINK-4386           
1 53649U 22105B   26189.16668980  .00187060  00000+0  25265-2 0  9990
2 53649  97.6014  74.1599 0002043  76.5196  48.1105 15.57119533  5828
STARLINK-4380           
1 53650U 22105C   26189.08786485  .00002549  00000+0  18045-3 0  9991
2 53650  97.2852  67.0331 0002203  88.6877 271.4603 15.05657531211347
STARLINK-4388           
1 53651U 22105D   26189.16668980  .00445635  00000+0  34670-2 0  9998
2 53651  97.6017  75.1461 0001225 102.2957 115.1979 15.70416007  5955
STARLINK-4374           
1 53652U 22105E   26189.10449369  .00000218  00000+0  19029-4 0  9998
2 53652  97.2841  67.0025 0001766  88.5625 271.5805 15.05640701211346
STARLINK-4390           
1 53653U 22105F   26188.71782238  .00047634  00000+0  76168-3 0  9999
2 53653  97.6013  72.8674 0002343 151.3131 208.8250 15.53013914211574
STARLINK-4420           
1 53654U 22105G   26187.63267465 -.00001058  00000+0 -69430-4 0  9997
2 53654  97.2847  66.6884 0001640  90.9360 269.2056 15.05648160211198
STARLINK-4470           
1 53655U 22105H   26188.67885763  .00007243  00000+0  10412-3 0  9995
2 53655  97.6030  74.6101 0001892 100.2246 259.9222 15.56421468211686
STARLINK-4466           
1 53656U 22105J   26187.61747985 -.00000200  00000+0 -99289-5 0  9991
2 53656  97.2865  65.6353 0002159  87.3740 272.7735 15.05653788211126
STARLINK-4452           
1 53658U 22105L   26188.12280819 -.00000411  00000+0 -24572-4 0  9994
2 53658  97.2845  67.2397 0002598  88.6584 271.4941 15.05651511211272
STARLINK-4473           
1 53660U 22105N   26189.13772123  .00000564  00000+0  43018-4 0  9996
2 53660  97.2886  67.0792 0002029  72.6947 287.4502 15.05647687211350
