OBJECT_NAME,OBJECT_ID,EPOCH,MEAN_MOTION,ECCENTRICITY,INCLINATION,RA_OF_ASC_NODE,ARG_OF_PERICENTER,MEAN_ANOMALY,EPHEMERIS_TYPE,CLASSIFICATION_TYPE,NORAD_CAT_ID,ELEMENT_SET_NO,REV_AT_EPOCH,BSTAR,MEAN_MOTION_DOT,MEAN_MOTION_DDOT
STARLINK-4608,2022-104AK,2026-07-07T21:39:14.232384,15.08816340,.0001282,53.1611,54.2082,80.5174,279.5963,0,U,53621,999,21378,.14384E-3,.2001E-4,0
STARLINK-4568,2022-104AL,2026-07-08T00:02:15.641088,15.08821740,.0001374,53.1613,53.4079,106.3742,253.7400,0,U,53622,999,21391,.1511E-3,.2116E-4,0
STARLINK-4573,2022-104AM,2026-07-08T04:00:01.998720,15.31707896,.0001256,53.1612,49.8462,70.9224,114.3899,0,U,53623,999,584,.51932E-4,.1247E-4,0
STARLINK-4596,2022-104AN,2026-07-08T00:10:29.632224,15.31697143,.0001423,53.1606,50.6358,77.8998,282.2163,0,U,53624,999,21395,-.69957E-4,-.2535E-4,0
STARLINK-4554,2022-104AQ,2026-07-08T04:00:01.998720,15.11466992,.0002223,53.1592,52.6670,78.2735,97.1411,0,U,53626,999,538,.26408E-2,.45179E-3,0
STARLINK-4595,2022-104AR,2026-07-08T00:18:09.650016,15.08813287,.0001184,53.1604,53.4737,102.2950,257.8174,0,U,53627,999,21392,.11316E-3,.1512E-4,0
STARLINK-4600,2022-104AS,2026-07-07T23:56:57.244992,15.08820222,.0001343,53.1612,53.3822,99.7679,260.3464,0,U,53628,999,21392,.10347E-3,.1358E-4,0
STARLINK-4602,2022-104AT,2026-07-07T22:37:29.203104,15.08819919,.0001464,53.1606,53.7456,84.7922,275.3237,0,U,53629,999,21391,.19251E-3,.2776E-4,0
STARLINK-4598,2022-104AU,2026-07-08T04:00:01.998720,15.13572576,.0001312,53.1599,43.0949,110.9535,216.3394,0,U,53630,999,583,.10998E-2,.19711E-3,0
STARLINK-4599,2022-104AV,2026-07-08T01:27:00.669024,15.08835979,.0001343,53.1610,53.0626,98.8341,261.2802,0,U,53631,999,21393,.19251E-3,.2777E-4,0
STARLINK-4606,2022-104AW,2026-07-08T00:51:20.945376,15.08815930,.0001281,53.1610,43.6340,96.2512,263.8626,0,U,53632,999,21439,.17533E-3,.2502E-4,0
STARLINK-4593,2022-104AX,2026-07-08T00:56:37.845024,15.08823991,.0001881,53.1610,43.6526,100.0143,260.1061,0,U,53633,999,21406,.90275E-4,.1148E-4,0
STARLINK-4592,2022-104AY,2026-07-07T19:54:33.132096,15.08827497,.0001302,53.1608,44.4833,99.5239,260.5900,0,U,53634,999,21436,.81807E-4,.1014E-4,0
STARLINK-4586,2022-104BA,2026-07-08T00:30:05.377248,15.08833123,.0001525,53.1603,43.5456,84.1756,275.9410,0,U,53636,999,21439,-.32071E-4,-.798E-5,0
STARLINK-4396,2022-104BB,2026-07-07T23:43:51.946752,15.08821188,.0001397,53.1611,44.0435,82.8271,277.2879,0,U,53637,999,21438,.16751E-3,.2378E-4,0
STARLINK-4594,2022-104BC,2026-07-08T00:03:34.888896,15.08821361,.0001428,53.1612,43.4309,81.5948,278.5205,0,U,53638,999,21439,.15838E-3,.2232E-4,0
STARLINK-4422,2022-104BD,2026-07-08T04:00:01.998720,15.60816079,.0000528,53.2171,28.6058,65.5748,228.9620,0,U,53639,999,588,.14662E-2,.125948E-2,0
STARLINK-4597,2022-104BE,2026-07-07T19:33:20.314080,15.08815527,.000129,53.1608,44.3933,91.3289,268.7851,0,U,53640,999,21436,.91116E-4,.1162E-4,0
STARLINK-4588,2022-104BF,2026-07-08T04:00:01.998720,15.12399906,.0000609,53.1599,42.9036,45.6702,17.7047,0,U,53641,999,579,.1467E-2,.25557E-3,0
STARLINK-4622,2022-105A,2026-07-08T02:02:33.908352,15.05644406,.0001884,97.2856,67.0450,87.8480,272.2964,0,U,53648,999,21135,.79158E-4,.1086E-4,0
STARLINK-4386,2022-105B,2026-07-08T04:00:01.998720,15.57119533,.0002043,97.6014,74.1599,76.5196,48.1105,0,U,53649,999,582,.25265E-2,.18706E-2,0
STARLINK-4380,2022-105C,2026-07-08T02:06:31.523040,15.05657531,.0002203,97.2852,67.0331,88.6877,271.4603,0,U,53650,999,21134,.18045E-3,.2549E-4,0
STARLINK-4388,2022-105D,2026-07-08T04:00:01.998720,15.70416007,.0001225,97.6017,75.1461,102.2957,115.1979,0,U,53651,999,595,.3467E-2,.445635E-2,0
STARLINK-4374,2022-105E,2026-07-08T02:30:28.254816,15.05640701,.0001766,97.2841,67.0025,88.5625,271.5805,0,U,53652,999,21134,.19029E-4,.218E-5,0
STARLINK-4390,2022-105F,2026-07-07T17:13:39.853632,15.53013914,.0002343,97.6013,72.8674,151.3131,208.8250,0,U,53653,999,21157,.76168E-3,.47634E-3,0
STARLINK-4420,2022-105G,2026-07-06T15:11:03.089760,15.05648160,.00016406,97.2847,66.6884,90.9360,269.2056,0,U,53654,999,21119,-.6943029E-4,-.1058E-4,0
STARLINK-4470,2022-105H,2026-07-07T16:17:33.299232,15.56421468,.0001892,97.6030,74.6101,100.2246,259.9222,0,U,53655,999,21168,.10412E-3,.7243E-4,0
STARLINK-4466,2022-105J,2026-07-06T14:49:10.259040,15.05653788,.00021597,97.2865,65.6353,87.3740,272.7735,0,U,53656,999,21112,-.9928873E-5,-.2E-5,0
STARLINK-4452,2022-105L,2026-07-07T02:56:50.627616,15.05651511,.00025987,97.2845,67.2397,88.6584,271.4941,0,U,53658,999,21127,-.24571729E-4,-.411E-5,0
STARLINK-4473,2022-105N,2026-07-08T03:18:19.114272,15.05647687,.0002029,97.2886,67.0792,72.6947,287.4502,0,U,53660,999,21135,.43018E-4,.564E-5,0
